{
  "norad_id": 57874,
  "name": "STARLINK-30447",
  "history": [
    {
      "epoch": "2026-04-16T13:15:41.400000Z",
      "apogee_km": 484.2357195786035,
      "perigee_km": 481.9289776336018,
      "latitude_deg": 2.9025311645122996e-06,
      "longitude_deg": 2.0006735857304845,
      "height_km": 483.1159579610158,
      "semi_major_axis_km": 6861.219348606102,
      "eccentricity": 0.0001681,
      "inclination_deg": 43.0096,
      "raan_deg": 45.6218,
      "arg_perigee_deg": 257.1923,
      "mean_anomaly_deg": 102.8741,
      "mean_motion_rev_day": 15.27568895
    },
    {
      "epoch": "2026-04-17T20:38:49.170912Z",
      "apogee_km": 483.81673886445515,
      "perigee_km": 482.1338452414602,
      "latitude_deg": 1.1186974179494417e-05,
      "longitude_deg": -117.4522508921938,
      "height_km": 482.6236563486662,
      "semi_major_axis_km": 6861.112292052957,
      "eccentricity": 0.00012264,
      "inclination_deg": 43.0081,
      "raan_deg": 38.2402,
      "arg_perigee_deg": 278.8253,
      "mean_anomaly_deg": 81.246,
      "mean_motion_rev_day": 15.27604648
    },
    {
      "epoch": "2026-04-18T12:20:23.134560Z",
      "apogee_km": 483.85109228094007,
      "perigee_km": 482.2708211675472,
      "latitude_deg": 3.459619572825243e-06,
      "longitude_deg": 2.818646758899677,
      "height_km": 482.88192666051225,
      "semi_major_axis_km": 6861.197956724243,
      "eccentricity": 0.00011516,
      "inclination_deg": 43.0068,
      "raan_deg": 34.5471,
      "arg_perigee_deg": 266.8275,
      "mean_anomaly_deg": 93.2445,
      "mean_motion_rev_day": 15.27576039
    },
    {
      "epoch": "2026-04-20T11:25:05.364192Z",
      "apogee_km": 484.20442233792164,
      "perigee_km": 481.85927482547595,
      "latitude_deg": -1.2848713684415942e-05,
      "longitude_deg": 3.6283291903345813,
      "height_km": 483.02248541863895,
      "semi_major_axis_km": 6861.1688485816985,
      "eccentricity": 0.0001709,
      "inclination_deg": 43.0084,
      "raan_deg": 23.4662,
      "arg_perigee_deg": 259.5439,
      "mean_anomaly_deg": 100.522,
      "mean_motion_rev_day": 15.2758576
    },
    {
      "epoch": "2026-04-21T10:57:25.564896Z",
      "apogee_km": 483.9334887469131,
      "perigee_km": 482.180453687266,
      "latitude_deg": -3.825744456534394e-05,
      "longitude_deg": 4.039320038092599,
      "height_km": 482.88450047013214,
      "semi_major_axis_km": 6861.193971217089,
      "eccentricity": 0.00012775,
      "inclination_deg": 43.0065,
      "raan_deg": 17.9281,
      "arg_perigee_deg": 266.7161,
      "mean_anomaly_deg": 93.3544,
      "mean_motion_rev_day": 15.2757737
    },
    {
      "epoch": "2026-04-21T23:30:40.755168Z",
      "apogee_km": 483.7972483974618,
      "perigee_km": 482.31468182156186,
      "latitude_deg": 3.4426214414266824e-05,
      "longitude_deg": 172.2583198899948,
      "height_km": 482.757878094961,
      "semi_major_axis_km": 6861.1929651095115,
      "eccentricity": 0.00010804,
      "inclination_deg": 43.0054,
      "raan_deg": 14.9759,
      "arg_perigee_deg": 275.8163,
      "mean_anomaly_deg": 84.2566,
      "mean_motion_rev_day": 15.27577706
    },
    {
      "epoch": "2026-04-24T17:25:15.231072Z",
      "apogee_km": 483.7165366238587,
      "perigee_km": 482.393698783565,
      "latitude_deg": -5.4865039950900185e-06,
      "longitude_deg": -114.60298731139994,
      "height_km": 482.9140752307738,
      "semi_major_axis_km": 6861.192117703711,
      "eccentricity": 9.64e-05,
      "inclination_deg": 43.0051,
      "raan_deg": 359.4651,
      "arg_perigee_deg": 262.8715,
      "mean_anomaly_deg": 97.2027,
      "mean_motion_rev_day": 15.27577989
    },
    {
      "epoch": "2026-04-25T09:06:49.012416Z",
      "apogee_km": 483.5733834896355,
      "perigee_km": 482.5249942399778,
      "latitude_deg": -1.2170112349040045e-05,
      "longitude_deg": 5.668572705685424,
      "height_km": 482.74598253234205,
      "semi_major_axis_km": 6861.186188864806,
      "eccentricity": 7.64e-05,
      "inclination_deg": 43.0073,
      "raan_deg": 355.7719,
      "arg_perigee_deg": 278.7975,
      "mean_anomaly_deg": 81.279,
      "mean_motion_rev_day": 15.27579969
    },
    {
      "epoch": "2026-04-26T16:29:56.569920Z",
      "apogee_km": 483.4286207147625,
      "perigee_km": 482.56905761683265,
      "latitude_deg": 8.26122983695519e-06,
      "longitude_deg": -113.78394868147815,
      "height_km": 482.6333809841098,
      "semi_major_axis_km": 6861.135839165798,
      "eccentricity": 6.264e-05,
      "inclination_deg": 43.0039,
      "raan_deg": 348.3898,
      "arg_perigee_deg": 289.2786,
      "mean_anomaly_deg": 70.7998,
      "mean_motion_rev_day": 15.27596784
    },
    {
      "epoch": "2026-04-27T08:11:31.033824Z",
      "apogee_km": 483.31834823665395,
      "perigee_km": 482.8010140068973,
      "latitude_deg": 3.667891060108071e-05,
      "longitude_deg": 6.4840977006122245,
      "height_km": 482.82673404069226,
      "semi_major_axis_km": 6861.196681121775,
      "eccentricity": 3.77e-05,
      "inclination_deg": 43.003,
      "raan_deg": 344.6959,
      "arg_perigee_deg": 272.0075,
      "mean_anomaly_deg": 88.0734,
      "mean_motion_rev_day": 15.27576465
    },
    {
      "epoch": "2026-04-28T07:43:51.664800Z",
      "apogee_km": 483.8984950695967,
      "perigee_km": 482.22847887106855,
      "latitude_deg": -1.865762227903053e-05,
      "longitude_deg": 6.892162051054343,
      "height_km": 482.8203823729385,
      "semi_major_axis_km": 6861.200486970332,
      "eccentricity": 0.0001217,
      "inclination_deg": 43.0062,
      "raan_deg": 339.1567,
      "arg_perigee_deg": 271.3964,
      "mean_anomaly_deg": 88.6748,
      "mean_motion_rev_day": 15.27575194
    },
    {
      "epoch": "2026-04-29T21:23:37.054176Z",
      "apogee_km": 483.91079732457365,
      "perigee_km": 482.16531439036316,
      "latitude_deg": -2.9070767672968394e-05,
      "longitude_deg": 151.5449809017189,
      "height_km": 482.65462274732886,
      "semi_major_axis_km": 6861.175055857468,
      "eccentricity": 0.0001272,
      "inclination_deg": 43.0076,
      "raan_deg": 330.2954,
      "arg_perigee_deg": 280.6227,
      "mean_anomaly_deg": 79.4481,
      "mean_motion_rev_day": 15.27583687
    },
    {
      "epoch": "2026-04-30T14:39:20.229984Z",
      "apogee_km": 483.87054907410584,
      "perigee_km": 482.2348414507542,
      "latitude_deg": 5.3843144073228695e-05,
      "longitude_deg": -112.15565502635596,
      "height_km": 482.79375533909865,
      "semi_major_axis_km": 6861.189695262429,
      "eccentricity": 0.0001192,
      "inclination_deg": 43.0055,
      "raan_deg": 326.2335,
      "arg_perigee_deg": 272.5283,
      "mean_anomaly_deg": 87.5433,
      "mean_motion_rev_day": 15.27578798
    },
    {
      "epoch": "2026-05-02T05:53:15.344736Z",
      "apogee_km": 483.95667840747046,
      "perigee_km": 482.1919748542605,
      "latitude_deg": -5.3573279201577626e-05,
      "longitude_deg": 8.520283552073408,
      "height_km": 482.77965118818696,
      "semi_major_axis_km": 6861.211326630865,
      "eccentricity": 0.0001286,
      "inclination_deg": 43.0049,
      "raan_deg": 317.0004,
      "arg_perigee_deg": 274.6702,
      "mean_anomaly_deg": 85.4002,
      "mean_motion_rev_day": 15.27571574
    },
    {
      "epoch": "2026-05-03T05:25:36.003360Z",
      "apogee_km": 483.87985766134534,
      "perigee_km": 482.2400315915793,
      "latitude_deg": 5.526012199610693e-06,
      "longitude_deg": 8.928851272960511,
      "height_km": 482.7282062971743,
      "semi_major_axis_km": 6861.196944626462,
      "eccentricity": 0.0001195,
      "inclination_deg": 43.0046,
      "raan_deg": 311.4617,
      "arg_perigee_deg": 277.6245,
      "mean_anomaly_deg": 82.4471,
      "mean_motion_rev_day": 15.27576377
    },
    {
      "epoch": "2026-05-04T20:39:31.284864Z",
      "apogee_km": 483.91684689683916,
      "perigee_km": 482.246826232019,
      "latitude_deg": -1.2261270291545427e-05,
      "longitude_deg": 129.6062853866624,
      "height_km": 482.6371005566647,
      "semi_major_axis_km": 6861.218836564429,
      "eccentricity": 0.0001217,
      "inclination_deg": 43.0049,
      "raan_deg": 302.2307,
      "arg_perigee_deg": 285.406,
      "mean_anomaly_deg": 74.6657,
      "mean_motion_rev_day": 15.27569066
    },
    {
      "epoch": "2026-05-05T12:21:04.228128Z",
      "apogee_km": 483.97338012389264,
      "perigee_km": 482.10576786045203,
      "latitude_deg": 2.248728814385679e-06,
      "longitude_deg": -110.1184326512159,
      "height_km": 482.69652213343716,
      "semi_major_axis_km": 6861.176573992172,
      "eccentricity": 0.0001361,
      "inclination_deg": 43.0036,
      "raan_deg": 298.5377,
      "arg_perigee_deg": 277.3913,
      "mean_anomaly_deg": 82.6784,
      "mean_motion_rev_day": 15.2758318
    },
    {
      "epoch": "2026-05-06T11:53:25.780992Z",
      "apogee_km": 483.9406334044852,
      "perigee_km": 482.2271121037229,
      "latitude_deg": -2.0816949682777004e-05,
      "longitude_deg": -109.71429013862843,
      "height_km": 482.6651744232218,
      "semi_major_axis_km": 6861.220872754104,
      "eccentricity": 0.00012487,
      "inclination_deg": 43.0037,
      "raan_deg": 292.9984,
      "arg_perigee_deg": 283.2032,
      "mean_anomaly_deg": 76.868,
      "mean_motion_rev_day": 15.27568386
    },
    {
      "epoch": "2026-05-07T17:42:24.020064Z",
      "apogee_km": 483.78968350895866,
      "perigee_km": 482.32550458258993,
      "latitude_deg": 2.469736625419025e-05,
      "longitude_deg": 154.80108422000157,
      "height_km": 482.7838728602689,
      "semi_major_axis_km": 6861.1945940457745,
      "eccentricity": 0.0001067,
      "inclination_deg": 43.0022,
      "raan_deg": 285.9809,
      "arg_perigee_deg": 273.9466,
      "mean_anomaly_deg": 86.1264,
      "mean_motion_rev_day": 15.27577162
    }
  ]
}